[{"OBJECT_NAME":"STARLINK-31232","OBJECT_ID":"2024-017F","EPOCH":"2026-03-09T15:37:30.434880","MEAN_MOTION":15.30187107,"ECCENTRICITY":0.00011808,"INCLINATION":53.1603,"RA_OF_ASC_NODE":204.2623,"ARG_OF_PERICENTER":50.642,"MEAN_ANOMALY":309.4685,"EPHEMERIS_TYPE":0,"CLASSIFICATION_TYPE":"U","NORAD_CAT_ID":58831,"ELEMENT_SET_NO":999,"REV_AT_EPOCH":12005,"BSTAR":2.1441089e-5,"MEAN_MOTION_DOT":2.76e-6,"MEAN_MOTION_DDOT":0},{"OBJECT_NAME":"FENGYUN 1C DEB","OBJECT_ID":"1999-025BDP","EPOCH":"2026-03-09T13:06:28.874592","MEAN_MOTION":14.76824991,"ECCENTRICITY":0.02629979,"INCLINATION":98.3487,"RA_OF_ASC_NODE":187.0157,"ARG_OF_PERICENTER":325.1899,"MEAN_ANOMALY":33.2345,"EPHEMERIS_TYPE":0,"CLASSIFICATION_TYPE":"U","NORAD_CAT_ID":31021,"ELEMENT_SET_NO":999,"REV_AT_EPOCH":74713,"BSTAR":0.00051474289,"MEAN_MOTION_DOT":6.356e-5,"MEAN_MOTION_DDOT":0}]
